SL-3 R/B                
1 13403U 82079B   25340.31019014  .00010506  00000+0  43494-3 0  9998
2 13403  81.1468 303.2388 0026909 119.6825 240.7092 15.23477611363470
SL-14 R/B               
1 13553U 82092B   25340.17195104  .00000923  00000+0  10120-3 0  9990
2 13553  82.5688 228.8537 0018907 250.4423 281.0398 14.86545433315032
SL-3 R/B                
1 13819U 83010B   25340.09396077  .00020540  00000+0  45935-3 0  9998
2 13819  81.1036 116.7291 0017475  14.1557 346.0172 15.43193144343498
SL-3 R/B                
1 14208U 83075B   25340.27280876  .00016636  00000+0  47372-3 0  9999
2 14208  97.6098 336.5400 0021992 198.8823 161.1607 15.35941597315807
COSMOS 1536             
1 14699U 84013A   25340.03664734  .00008868  00000+0  38158-3 0  9999
2 14699  82.5450 200.8110 0013216 251.6677 108.3122 15.22404696258364
SL-14 R/B               
1 14820U 84027B   25340.22533960  .00000938  00000+0  10483-3 0  9998
2 14820  82.5409 332.6660 0016440 284.4553  75.4839 14.85863435233750
SL-8 R/B                
1 15483U 85006B   25340.20275226  .00000505  00000+0  17619-3 0  9996
2 15483  74.0466  73.1614 0018402   7.0239  13.6055 14.37715268140591
SL-12 R/B(2)            
1 15772U 85042D   25340.12482684  .00000229  00000+0  12438-3 0  9993
2 15772  71.1083 285.3944 0037693 271.1895 106.6979 14.21948597101099
SL-14 R/B               
1 15945U 85069B   25340.10391151  .00001082  00000+0  11979-3 0  9997
2 15945  82.5262 112.9410 0019781 139.1900 221.0803 14.86311703158934
SL-16 R/B               
1 16182U 85097B   25340.27485624 -.00000044  00000+0  19852-5 0  9997
2 16182  71.0029 337.2142 0006263  20.9503 358.3399 14.16581658 74003
SL-14 R/B               
1 16496U 86006B   25340.30578389  .00001304  00000+0  13669-3 0  9998
2 16496  82.5266 347.6058 0075666 221.3954 138.1516 14.86659209135336
COSMOS 1743             
1 16719U 86034A   25340.27093019  .00041375  00000+0  69309-3 0  9999
2 16719  82.5340 171.3080 0004759 281.7444  78.3274 15.51660022165734
