CCSDS_OMM_VERS = 2.0
CREATION_DATE  = 
ORIGINATOR     = 

OBJECT_NAME    = SL-3 R/B
OBJECT_ID      = 1982-079B
CENTER_NAME    = EARTH
REF_FRAME      = TEME
TIME_SYSTEM    = UTC
MEAN_ELEMENT_THEORY = SGP/SGP4

EPOCH          = 2025-12-06T07:26:40.428096
MEAN_MOTION    = 15.23477611
ECCENTRICITY   = .00269094
INCLINATION    = 81.1468
RA_OF_ASC_NODE = 303.2388
ARG_OF_PERICENTER = 119.6825
MEAN_ANOMALY   = 240.7092

EPHEMERIS_TYPE = 0
CLASSIFICATION_TYPE = U
NORAD_CAT_ID   = 13403
ELEMENT_SET_NO = 999
REV_AT_EPOCH   = 36347
BSTAR          = .4349355E-3
MEAN_MOTION_DOT = .10506E-3
MEAN_MOTION_DDOT = 0

CCSDS_OMM_VERS = 2.0
CREATION_DATE  = 
ORIGINATOR     = 

OBJECT_NAME    = SL-14 R/B
OBJECT_ID      = 1982-092B
CENTER_NAME    = EARTH
REF_FRAME      = TEME
TIME_SYSTEM    = UTC
MEAN_ELEMENT_THEORY = SGP/SGP4

EPOCH          = 2025-12-06T04:07:36.569856
MEAN_MOTION    = 14.86545433
ECCENTRICITY   = .00189072
INCLINATION    = 82.5688
RA_OF_ASC_NODE = 228.8537
ARG_OF_PERICENTER = 250.4423
MEAN_ANOMALY   = 281.0398

EPHEMERIS_TYPE = 0
CLASSIFICATION_TYPE = U
NORAD_CAT_ID   = 13553
ELEMENT_SET_NO = 999
REV_AT_EPOCH   = 31503
BSTAR          = .10120373E-3
MEAN_MOTION_DOT = .923E-5
MEAN_MOTION_DDOT = 0

CCSDS_OMM_VERS = 2.0
CREATION_DATE  = 
ORIGINATOR     = 

OBJECT_NAME    = SL-3 R/B
OBJECT_ID      = 1983-010B
CENTER_NAME    = EARTH
REF_FRAME      = TEME
TIME_SYSTEM    = UTC
MEAN_ELEMENT_THEORY = SGP/SGP4

EPOCH          = 2025-12-06T02:15:18.210528
MEAN_MOTION    = 15.43193144
ECCENTRICITY   = .00174752
INCLINATION    = 81.1036
RA_OF_ASC_NODE = 116.7291
ARG_OF_PERICENTER = 14.1557
MEAN_ANOMALY   = 346.0172

EPHEMERIS_TYPE = 0
CLASSIFICATION_TYPE = U
NORAD_CAT_ID   = 13819
ELEMENT_SET_NO = 999
REV_AT_EPOCH   = 34349
BSTAR          = .45935391E-3
MEAN_MOTION_DOT = .2054E-3
MEAN_MOTION_DDOT = 0

CCSDS_OMM_VERS = 2.0
CREATION_DATE  = 
ORIGINATOR     = 

OBJECT_NAME    = SL-3 R/B
OBJECT_ID      = 1983-075B
CENTER_NAME    = EARTH
REF_FRAME      = TEME
TIME_SYSTEM    = UTC
MEAN_ELEMENT_THEORY = SGP/SGP4

EPOCH          = 2025-12-06T06:32:50.676864
MEAN_MOTION    = 15.35941597
ECCENTRICITY   = .00219923
INCLINATION    = 97.6098
RA_OF_ASC_NODE = 336.5400
ARG_OF_PERICENTER = 198.8823
MEAN_ANOMALY   = 161.1607

EPHEMERIS_TYPE = 0
CLASSIFICATION_TYPE = U
NORAD_CAT_ID   = 14208
ELEMENT_SET_NO = 999
REV_AT_EPOCH   = 31580
BSTAR          = .47371924E-3
MEAN_MOTION_DOT = .16636E-3
MEAN_MOTION_DDOT = 0

CCSDS_OMM_VERS = 2.0
CREATION_DATE  = 
ORIGINATOR     = 

OBJECT_NAME    = COSMOS 1536
OBJECT_ID      = 1984-013A
CENTER_NAME    = EARTH
REF_FRAME      = TEME
TIME_SYSTEM    = UTC
MEAN_ELEMENT_THEORY = SGP/SGP4

EPOCH          = 2025-12-06T00:52:46.330176
MEAN_MOTION    = 15.22404696
ECCENTRICITY   = .00132162
INCLINATION    = 82.5450
RA_OF_ASC_NODE = 200.8110
ARG_OF_PERICENTER = 251.6677
MEAN_ANOMALY   = 108.3122

EPHEMERIS_TYPE = 0
CLASSIFICATION_TYPE = U
NORAD_CAT_ID   = 14699
ELEMENT_SET_NO = 999
REV_AT_EPOCH   = 25836
BSTAR          = .38157842E-3
MEAN_MOTION_DOT = .8868E-4
MEAN_MOTION_DDOT = 0

CCSDS_OMM_VERS = 2.0
CREATION_DATE  = 
ORIGINATOR     = 

OBJECT_NAME    = SL-14 R/B
OBJECT_ID      = 1984-027B
CENTER_NAME    = EARTH
REF_FRAME      = TEME
TIME_SYSTEM    = UTC
MEAN_ELEMENT_THEORY = SGP/SGP4

EPOCH          = 2025-12-06T05:24:29.341440
MEAN_MOTION    = 14.85863435
ECCENTRICITY   = .00164406
INCLINATION    = 82.5409
RA_OF_ASC_NODE = 332.6660
ARG_OF_PERICENTER = 284.4553
MEAN_ANOMALY   = 75.4839

EPHEMERIS_TYPE = 0
CLASSIFICATION_TYPE = U
NORAD_CAT_ID   = 14820
ELEMENT_SET_NO = 999
REV_AT_EPOCH   = 23375
BSTAR          = .10483164E-3
MEAN_MOTION_DOT = .938E-5
MEAN_MOTION_DDOT = 0

CCSDS_OMM_VERS = 2.0
CREATION_DATE  = 
ORIGINATOR     = 

OBJECT_NAME    = SL-8 R/B
OBJECT_ID      = 1985-006B
CENTER_NAME    = EARTH
REF_FRAME      = TEME
TIME_SYSTEM    = UTC
MEAN_ELEMENT_THEORY = SGP/SGP4

EPOCH          = 2025-12-06T04:51:57.795264
MEAN_MOTION    = 14.37715268
ECCENTRICITY   = .00184023
INCLINATION    = 74.0466
RA_OF_ASC_NODE = 73.1614
ARG_OF_PERICENTER = 7.0239
MEAN_ANOMALY   = 13.6055

EPHEMERIS_TYPE = 0
CLASSIFICATION_TYPE = U
NORAD_CAT_ID   = 15483
ELEMENT_SET_NO = 999
REV_AT_EPOCH   = 14059
BSTAR          = .17619314E-3
MEAN_MOTION_DOT = .505E-5
MEAN_MOTION_DDOT = 0

CCSDS_OMM_VERS = 2.0
CREATION_DATE  = 
ORIGINATOR     = 

OBJECT_NAME    = SL-12 R/B(2)
OBJECT_ID      = 1985-042D
CENTER_NAME    = EARTH
REF_FRAME      = TEME
TIME_SYSTEM    = UTC
MEAN_ELEMENT_THEORY = SGP/SGP4

EPOCH          = 2025-12-06T02:59:45.038976
MEAN_MOTION    = 14.21948597
ECCENTRICITY   = .0037693
INCLINATION    = 71.1083
RA_OF_ASC_NODE = 285.3944
ARG_OF_PERICENTER = 271.1895
MEAN_ANOMALY   = 106.6979

EPHEMERIS_TYPE = 0
CLASSIFICATION_TYPE = U
NORAD_CAT_ID   = 15772
ELEMENT_SET_NO = 999
REV_AT_EPOCH   = 10109
BSTAR          = .12437655E-3
MEAN_MOTION_DOT = .229E-5
MEAN_MOTION_DDOT = 0

CCSDS_OMM_VERS = 2.0
CREATION_DATE  = 
ORIGINATOR     = 

OBJECT_NAME    = SL-14 R/B
OBJECT_ID      = 1985-069B
CENTER_NAME    = EARTH
REF_FRAME      = TEME
TIME_SYSTEM    = UTC
MEAN_ELEMENT_THEORY = SGP/SGP4

EPOCH          = 2025-12-06T02:29:37.954464
MEAN_MOTION    = 14.86311703
ECCENTRICITY   = .00197813
INCLINATION    = 82.5262
RA_OF_ASC_NODE = 112.9410
ARG_OF_PERICENTER = 139.1900
MEAN_ANOMALY   = 221.0803

EPHEMERIS_TYPE = 0
CLASSIFICATION_TYPE = U
NORAD_CAT_ID   = 15945
ELEMENT_SET_NO = 999
REV_AT_EPOCH   = 15893
BSTAR          = .11979321E-3
MEAN_MOTION_DOT = .1082E-4
MEAN_MOTION_DDOT = 0

CCSDS_OMM_VERS = 2.0
CREATION_DATE  = 
ORIGINATOR     = 

OBJECT_NAME    = SL-16 R/B
OBJECT_ID      = 1985-097B
CENTER_NAME    = EARTH
REF_FRAME      = TEME
TIME_SYSTEM    = UTC
MEAN_ELEMENT_THEORY = SGP/SGP4

EPOCH          = 2025-12-06T06:35:47.579136
MEAN_MOTION    = 14.16581658
ECCENTRICITY   = .00062637
INCLINATION    = 71.0029
RA_OF_ASC_NODE = 337.2142
ARG_OF_PERICENTER = 20.9503
MEAN_ANOMALY   = 358.3399

EPHEMERIS_TYPE = 0
CLASSIFICATION_TYPE = U
NORAD_CAT_ID   = 16182
ELEMENT_SET_NO = 999
REV_AT_EPOCH   = 7400
BSTAR          = .198524E-5
MEAN_MOTION_DOT = -.44E-6
MEAN_MOTION_DDOT = 0

CCSDS_OMM_VERS = 2.0
CREATION_DATE  = 
ORIGINATOR     = 

OBJECT_NAME    = SL-14 R/B
OBJECT_ID      = 1986-006B
CENTER_NAME    = EARTH
REF_FRAME      = TEME
TIME_SYSTEM    = UTC
MEAN_ELEMENT_THEORY = SGP/SGP4

EPOCH          = 2025-12-06T07:20:19.728096
MEAN_MOTION    = 14.86659209
ECCENTRICITY   = .00756665
INCLINATION    = 82.5266
RA_OF_ASC_NODE = 347.6058
ARG_OF_PERICENTER = 221.3954
MEAN_ANOMALY   = 138.1516

EPHEMERIS_TYPE = 0
CLASSIFICATION_TYPE = U
NORAD_CAT_ID   = 16496
ELEMENT_SET_NO = 999
REV_AT_EPOCH   = 13533
BSTAR          = .13668991E-3
MEAN_MOTION_DOT = .1304E-4
MEAN_MOTION_DDOT = 0

CCSDS_OMM_VERS = 2.0
CREATION_DATE  = 
ORIGINATOR     = 

OBJECT_NAME    = COSMOS 1743
OBJECT_ID      = 1986-034A
CENTER_NAME    = EARTH
REF_FRAME      = TEME
TIME_SYSTEM    = UTC
MEAN_ELEMENT_THEORY = SGP/SGP4

EPOCH          = 2025-12-06T06:30:08.368416
MEAN_MOTION    = 15.51660022
ECCENTRICITY   = .00047596
INCLINATION    = 82.5340
RA_OF_ASC_NODE = 171.3080
ARG_OF_PERICENTER = 281.7444
MEAN_ANOMALY   = 78.3274

EPHEMERIS_TYPE = 0
CLASSIFICATION_TYPE = U
NORAD_CAT_ID   = 16719
ELEMENT_SET_NO = 999
REV_AT_EPOCH   = 16573
BSTAR          = .69308621E-3
MEAN_MOTION_DOT = .41375E-3
MEAN_MOTION_DDOT = 0

